{
  "norad_id": 68745,
  "name": "STARLINK-37267",
  "history": [
    {
      "epoch": "2026-04-23T11:32:11.596992Z",
      "apogee_km": 318.28066687133196,
      "perigee_km": 316.746559402849,
      "latitude_deg": 1.3955969243060395e-05,
      "longitude_deg": -48.95813331042507,
      "height_km": 321.3515113457852,
      "semi_major_axis_km": 6695.65061313709,
      "eccentricity": 0.00011456,
      "inclination_deg": 97.2876,
      "raan_deg": 335.6175,
      "arg_perigee_deg": 149.0501,
      "mean_anomaly_deg": 211.0837,
      "mean_motion_rev_day": 15.84577871
    },
    {
      "epoch": "2026-04-25T20:00:01.000224Z",
      "apogee_km": 329.1348700408216,
      "perigee_km": 327.35499627576246,
      "latitude_deg": 62.562271919423566,
      "longitude_deg": 170.08487597040858,
      "height_km": 338.19766823961197,
      "semi_major_axis_km": 6706.381933158292,
      "eccentricity": 0.0001327,
      "inclination_deg": 97.2854,
      "raan_deg": 338.1084,
      "arg_perigee_deg": 84.2176,
      "mean_anomaly_deg": 339.1593,
      "mean_motion_rev_day": 15.80776013
    },
    {
      "epoch": "2026-04-26T00:00:02.999808Z",
      "apogee_km": 329.09125890947143,
      "perigee_km": 327.43035242891983,
      "latitude_deg": -67.68653479953855,
      "longitude_deg": 142.30400028602244,
      "height_km": 354.59352104487976,
      "semi_major_axis_km": 6706.397805669196,
      "eccentricity": 0.00012383,
      "inclination_deg": 97.2847,
      "raan_deg": 338.2841,
      "arg_perigee_deg": 87.2557,
      "mean_anomaly_deg": 204.0837,
      "mean_motion_rev_day": 15.80770401
    },
    {
      "epoch": "2026-04-27T20:00:03.000384Z",
      "apogee_km": 329.59753106457356,
      "perigee_km": 327.74108707822234,
      "latitude_deg": -79.54006953916169,
      "longitude_deg": -132.0894791213267,
      "height_km": 357.5840775350246,
      "semi_major_axis_km": 6706.806309071398,
      "eccentricity": 0.0001384,
      "inclination_deg": 97.285,
      "raan_deg": 340.224,
      "arg_perigee_deg": 77.9374,
      "mean_anomaly_deg": 199.6987,
      "mean_motion_rev_day": 15.80625979
    },
    {
      "epoch": "2026-04-28T20:00:01.000224Z",
      "apogee_km": 342.31034164752236,
      "perigee_km": 340.144018635845,
      "latitude_deg": -16.412645002194942,
      "longitude_deg": 2.3262101057881583,
      "height_km": 348.3185761258003,
      "semi_major_axis_km": 6719.364180141683,
      "eccentricity": 0.0001612,
      "inclination_deg": 97.2848,
      "raan_deg": 341.2793,
      "arg_perigee_deg": 85.6007,
      "mean_anomaly_deg": 110.7076,
      "mean_motion_rev_day": 15.76196984
    }
  ]
}